[{"OBJECT_NAME":"STARLINK-5190","OBJECT_ID":"2022-136AT","EPOCH":"2026-03-09T12:41:00.063744","MEAN_MOTION":15.67479539,"ECCENTRICITY":0.00024286,"INCLINATION":53.1784,"RA_OF_ASC_NODE":175.0319,"ARG_OF_PERICENTER":333.791,"MEAN_ANOMALY":26.2984,"EPHEMERIS_TYPE":0,"CLASSIFICATION_TYPE":"U","NORAD_CAT_ID":54092,"ELEMENT_SET_NO":999,"REV_AT_EPOCH":18920,"BSTAR":0.0005696033,"MEAN_MOTION_DOT":0.00062878,"MEAN_MOTION_DDOT":0},{"OBJECT_NAME":"STARLINK-11129 [DTC]","OBJECT_ID":"2024-112A","EPOCH":"2026-03-09T17:38:22.865568","MEAN_MOTION":15.69703212,"ECCENTRICITY":6.664e-5,"INCLINATION":53.1587,"RA_OF_ASC_NODE":266.3726,"ARG_OF_PERICENTER":118.5927,"MEAN_ANOMALY":241.5158,"EPHEMERIS_TYPE":0,"CLASSIFICATION_TYPE":"U","NORAD_CAT_ID":60038,"ELEMENT_SET_NO":999,"REV_AT_EPOCH":10098,"BSTAR":-4.418583e-6,"MEAN_MOTION_DOT":-1.123e-5,"MEAN_MOTION_DDOT":0}]
