STARLINK-5190           
1 54092U 22136AT  26068.52847296  .00062878  00000+0  56960-3 0  9998
2 54092  53.1784 175.0319 0002428 333.7910  26.2984 15.67479539189205
STARLINK-11129 [DTC]    
1 60038U 24112A   26068.73498686 -.00001123  00000+0 -44186-5 0  9996
2 60038  53.1587 266.3726 0000666 118.5927 241.5158 15.69703212100981
